IRIDIUM 106             
1 41917U 17003A   24365.78493190  .00000166  00000+0  52237-4 0  9999
2 41917  86.3974 311.4263 0001983  91.5260 268.6163 14.34218381416755
IRIDIUM 103             
1 41918U 17003B   24365.91178139  .00000873  00000+0  30479-3 0  9996
2 41918  86.3974 311.2745 0001653  71.9950 288.1426 14.34221559416795
IRIDIUM 109             
1 41919U 17003C   24365.84835961  .00000046  00000+0  94183-5 0  9998
2 41919  86.3976 311.3518 0002191  77.9348 282.2094 14.34217707416754
IRIDIUM 102             
1 41920U 17003D   24365.88640619  .00000848  00000+0  29571-3 0  9995
2 41920  86.3978 311.2705 0002389  85.2077 274.9391 14.34214794416846
IRIDIUM 105             
1 41921U 17003E   24366.06643602  .00000975  00000+0  34096-3 0  9991
2 41921  86.3970 279.6171 0002029  85.0238 275.1190 14.34230265418721
IRIDIUM 104             
1 41922U 17003F   24365.82933099  .00000237  00000+0  77431-4 0  9999
2 41922  86.3976 311.3290 0002267  71.3164 288.8277 14.34217628416828
IRIDIUM 114             
1 41923U 17003G   24365.69613669  .00000009  00000+0 -36989-5 0  9995
2 41923  86.3971 311.3702 0001795  81.1020 279.0379 14.34216963416788
IRIDIUM 108             
1 41924U 17003H   24366.07326763  .00000622  00000+0  21487-3 0  9990
2 41924  86.3965 279.5263 0002065  89.1276 271.0157 14.34219935418714
